{"epoch":1784710044,"count":18256,"objects":[{"id":"44903","name":"ELEKTRO-L 3","type":"PAYLOAD","l1":"1 44903U 19095A   26202.98781726 -.00000094  00000-0  00000+0 0  9997","l2":"2 44903   0.3440  82.4298 0001627  19.2011 269.7081  1.00272026 24050"},{"id":"44905","name":"GONETS M 14 (M24)","type":"PAYLOAD","l1":"1 44905U 19096A   26202.58191737  .00000164  00000-0  11107-2 0  9993","l2":"2 44905  82.5211  63.3133 0014446  77.6570 282.6126 12.42871588297958"},{"id":"44906","name":"GONETS M 15 (M25)","type":"PAYLOAD","l1":"1 44906U 19096B   26202.61118384  .00000083  00000-0  52626-3 0  9997","l2":"2 44906  82.5230  63.7619 0016224  99.1702 261.1214 12.42883614297925"},{"id":"44907","name":"GONETS M 16 (M26)","type":"PAYLOAD","l1":"1 44907U 19096C   26202.55644912  .00000102  00000-0  66267-3 0  9990","l2":"2 44907  82.5176  62.7320 0011265 138.0026 222.1920 12.42893041297909"},{"id":"45016","name":"JILIN-01 KUANFU 01","type":"PAYLOAD","l1":"1 45016U 20003A   26202.59340161  .00001986  00000-0  12298-3 0  9991","l2":"2 45016  97.5015 275.8781 0009877 174.9761 185.1570 15.10891044360525"},{"id":"45602","name":"XINGYUN-2 01","type":"PAYLOAD","l1":"1 45602U 20028A   26202.62440198  .00001048  00000-0  64835-4 0  9998","l2":"2 45602  97.4892 194.3477 0011161  85.7075 274.5430 15.11931891340040"},{"id":"45603","name":"XINGYUN-2 02","type":"PAYLOAD","l1":"1 45603U 20028B   26202.60924831  .00001528  00000-0  93523-4 0  9997","l2":"2 45603  97.5086 207.9992 0011806 144.9126 215.2884 15.11655616340033"},{"id":"45721","name":"HAIYANG 1D","type":"PAYLOAD","l1":"1 45721U 20036A   26202.57726100 -.00000021  00000-0  79293-5 0  9999","l2":"2 45721  98.4558 143.5104 0003914  58.3625 301.7942 14.34182617319909"},{"id":"45727","name":"M2 PATHFINDER","type":"PAYLOAD","l1":"1 45727U 20037E   26202.49275150  .00001866  00000-0  13659-3 0  9990","l2":"2 45727  97.8142  34.1129 0012333  42.4050 317.8126 15.04807577330654"},{"id":"45856","name":"GAOFEN DUOMO (GFDM)","type":"PAYLOAD","l1":"1 45856U 20042A   26202.62525387  .00000405  00000-0  64731-4 0  9990","l2":"2 45856  97.7723 261.2550 0010155 331.6804  28.3853 14.76807420326091"},{"id":"45939","name":"ZINYUAN-3","type":"PAYLOAD","l1":"1 45939U 20051A   26202.65032953  .00005766  00000-0  26139-3 0  9991","l2":"2 45939  97.5359 269.6738 0003307 213.4958 146.6069 15.21235348332583"},{"id":"46277","name":"NEMO-HD","type":"PAYLOAD","l1":"1 46277U 20061F   26202.58755381  .00010386  00000-0  22039-3 0  9996","l2":"2 46277  97.1898 264.2044 0001044 114.7676 245.3682 15.45230139327299"},{"id":"46292","name":"3CAT-5/A (TYVAK-0161)","type":"PAYLOAD","l1":"1 46292U 20061W   26202.59635036  .00016141  00000-0  32037-3 0  9992","l2":"2 46292  97.2379 265.4684 0001924  62.6476 297.4970 15.47080350326343"},{"id":"46293","name":"3CAT-5/B (TYVAK-0162)","type":"PAYLOAD","l1":"1 46293U 20061X   26202.16048530  .00014217  00000-0  26866-3 0  9998","l2":"2 46293  97.2369 266.0845 0002038  58.5669 301.5781 15.48530717326316"},{"id":"46320","name":"NAPA-1","type":"PAYLOAD","l1":"1 46320U 20061BA  26202.63545920  .00087558  00000-0  64647-3 0  9993","l2":"2 46320  97.2432 278.0643 0002634 168.4885 191.6439 15.72724856327146"},{"id":"46457","name":"JILIN-01 GAOFEN 3E","type":"PAYLOAD","l1":"1 46457U 20065D   26202.60372364  .00076773  00000-0  69184-3 0  9993","l2":"2 46457  97.2201 256.1105 0009068  50.3592 309.8468 15.67895229325143"},{"id":"46458","name":"JILIN-01 GAOFEN 3F","type":"PAYLOAD","l1":"1 46458U 20065E   26202.63198660  .00064233  00000-0  66375-3 0  9999","l2":"2 46458  97.2163 253.2938 0010366  34.8737 325.3200 15.64496950325089"},{"id":"46459","name":"JILIN-01 GAOFEN 3G","type":"PAYLOAD","l1":"1 46459U 20065F   26202.59098152  .00135087  00000-0  78445-3 0  9997","l2":"2 46459  97.2216 260.7093 0006416 245.4893 114.5705 15.78106177325350"},{"id":"46460","name":"JILIN-01 GAOFEN 3H","type":"PAYLOAD","l1":"1 46460U 20065G   26202.59030836  .00101099  00000-0  73045-3 0  9991","l2":"2 46460  97.2166 256.7921 0007144 183.3576 176.7642 15.73165954325283"},{"id":"46469","name":"HAIYANG 2C","type":"PAYLOAD","l1":"1 46469U 20066A   26202.57807449 -.00000002  00000-0  71696-4 0  9995","l2":"2 46469  65.9973 129.6602 0007330 236.9023 123.1342 13.83373701294258"},{"id":"46478","name":"HJ-2A","type":"PAYLOAD","l1":"1 46478U 20067A   26202.65871748  .00000933  00000-0  14095-3 0  9999","l2":"2 46478  97.8813 280.2147 0004681 138.3197 221.8370 14.76555417313344"},{"id":"46479","name":"HJ-2B","type":"PAYLOAD","l1":"1 46479U 20067B   26202.62763833  .00000128  00000-0  25450-4 0  9996","l2":"2 46479  97.8878 281.2336 0002133 101.4494 258.6955 14.76514246313340"},{"id":"46486","name":"GONETS M 17","type":"PAYLOAD","l1":"1 46486U 20068A   26202.58197042 -.00000022  00000-0 -22959-3 0  9998","l2":"2 46486  82.5018 326.1060 0021590 322.1745  37.7816 12.42873915263435"},{"id":"46487","name":"GONETS M 18","type":"PAYLOAD","l1":"1 46487U 20068B   26202.62611059  .00000013  00000-0  24518-4 0  9995","l2":"2 46487  82.4971 325.1833 0018854 318.5602  41.4047 12.42875037263424"},{"id":"46488","name":"GONETS M 19","type":"PAYLOAD","l1":"1 46488U 20068C   26202.60104664 -.00000014  00000-0 -16906-3 0  9997","l2":"2 46488  82.4996 325.6557 0012788 335.5517  24.4955 12.42892785263523"},{"id":"46493","name":"DEKART","type":"PAYLOAD","l1":"1 46493U 20068H   26202.63040492  .00011115  00000-0  29878-3 0  9998","l2":"2 46493  97.8750 214.3863 0009914 151.8829 208.2952 15.38046927321063"}]}