OBJECT_NAME,OBJECT_ID,EPOCH,MEAN_MOTION,ECCENTRICITY,INCLINATION,RA_OF_ASC_NODE,ARG_OF_PERICENTER,MEAN_ANOMALY,EPHEMERIS_TYPE,CLASSIFICATION_TYPE,NORAD_CAT_ID,ELEMENT_SET_NO,REV_AT_EPOCH,BSTAR,MEAN_MOTION_DOT,MEAN_MOTION_DDOT
ELEKTRO-L 3,2019-095A,2026-07-21T23:42:27.411264,1.00272026,.0001627,0.3440,82.4298,19.2011,269.7081,0,U,44903,999,2405,0,-.94E-6,0
GONETS-M 14,2019-096A,2026-07-21T13:57:57.660768,12.42871588,.00144459,82.5211,63.3133,77.6570,282.6126,0,U,44905,999,29795,.11106821E-2,.164E-5,0
GONETS-M 15,2019-096B,2026-07-21T14:40:06.283776,12.42883614,.00162244,82.5230,63.7619,99.1702,261.1214,0,U,44906,999,29792,.52626144E-3,.83E-6,0
GONETS-M 16,2019-096C,2026-07-21T13:21:17.203968,12.42893041,.00112652,82.5176,62.7320,138.0026,222.1920,0,U,44907,999,29790,.66266657E-3,.102E-5,0
JILIN-1 KUANFU 01,2020-003A,2026-07-21T14:14:29.899104,15.10891044,.00098772,97.5015,275.8781,174.9761,185.1570,0,U,45016,999,36052,.12297555E-3,.1986E-4,0
XINGYUN-2 01,2020-028A,2026-07-21T14:59:08.331072,15.11931891,.00111609,97.4892,194.3477,85.7075,274.5430,0,U,45602,999,34004,.648351E-4,.1048E-4,0
XINGYUN-2 02,2020-028B,2026-07-21T14:37:19.053984,15.11655616,.00118064,97.5086,207.9992,144.9126,215.2884,0,U,45603,999,34003,.93522725E-4,.1528E-4,0
HAIYANG-1D,2020-036A,2026-07-21T13:51:15.350400,14.34182617,.00039138,98.4558,143.5104,58.3625,301.7942,0,U,45721,999,31990,.792931E-5,-.21E-6,0
M2 PATHFINDER,2020-037E,2026-07-21T11:49:33.729600,15.04807577,.00123331,97.8142,34.1129,42.4050,317.8126,0,U,45727,999,33065,.13658851E-3,.1866E-4,0
GAOFEN DUOMO (GFDM),2020-042A,2026-07-21T15:00:21.934368,14.76807420,.00101545,97.7723,261.2550,331.6804,28.3853,0,U,45856,999,32609,.64730701E-4,.405E-5,0
ZIYUAN 3-03 (ZY 3-03),2020-051A,2026-07-21T15:36:28.471392,15.21235348,.00033068,97.5359,269.6738,213.4958,146.6069,0,U,45939,999,33258,.26139352E-3,.5766E-4,0
NEMO-HD,2020-061F,2026-07-21T14:06:04.649184,15.45230139,.00010442,97.1898,264.2044,114.7676,245.3682,0,U,46277,999,32729,.2203862E-3,.10386E-3,0
3CAT-5A,2020-061W,2026-07-21T14:18:44.671104,15.47080350,.00019241,97.2379,265.4684,62.6476,297.4970,0,U,46292,999,32634,.32037283E-3,.16141E-3,0
3CAT-5B,2020-061X,2026-07-21T03:51:05.929920,15.48530717,.00020383,97.2369,266.0845,58.5669,301.5781,0,U,46293,999,32631,.26866074E-3,.14217E-3,0
NAPA-1,2020-061BA,2026-07-21T15:15:03.674880,15.72724856,.00026339,97.2432,278.0643,168.4885,191.6439,0,U,46320,999,32714,.64647032E-3,.87558E-3,0
JILIN-1 GAOFEN 3E,2020-065D,2026-07-21T14:29:21.722496,15.67895229,.0009068,97.2201,256.1105,50.3592,309.8468,0,U,46457,999,32514,.69184014E-3,.76773E-3,0
JILIN-1 GAOFEN 3F,2020-065E,2026-07-21T15:10:03.642240,15.64496950,.00103661,97.2163,253.2938,34.8737,325.3200,0,U,46458,999,32508,.66374599E-3,.64233E-3,0
JILIN-1 GAOFEN 3G,2020-065F,2026-07-21T14:11:00.803328,15.78106177,.00064159,97.2216,260.7093,245.4893,114.5705,0,U,46459,999,32535,.78444626E-3,.135087E-2,0
JILIN-1 GAOFEN 3H,2020-065G,2026-07-21T14:10:02.642304,15.73165954,.0007144,97.2166,256.7921,183.3576,176.7642,0,U,46460,999,32528,.73044708E-3,.101099E-2,0
HAIYANG-2C,2020-066A,2026-07-21T13:52:25.635936,13.83373701,.00073295,65.9973,129.6602,236.9023,123.1342,0,U,46469,999,29425,.71695661E-4,-.2E-7,0
HJ-2A,2020-067A,2026-07-21T15:48:33.190272,14.76555417,.00046812,97.8813,280.2147,138.3197,221.8370,0,U,46478,999,31334,.14095342E-3,.933E-5,0
HJ-2B,2020-067B,2026-07-21T15:03:47.951712,14.76514246,.0002133,97.8878,281.2336,101.4494,258.6955,0,U,46479,999,31334,.25450222E-4,.128E-5,0
GONETS-M 17,2020-068A,2026-07-21T13:58:02.244288,12.42873915,.00215896,82.5018,326.1060,322.1745,37.7816,0,U,46486,999,26343,-.22958893E-3,-.22E-6,0
GONETS-M 18,2020-068B,2026-07-21T15:01:35.954976,12.42875037,.00188535,82.4971,325.1833,318.5602,41.4047,0,U,46487,999,26342,.24517562E-4,.13E-6,0
GONETS-M 19,2020-068C,2026-07-21T14:25:30.429696,12.42892785,.00127882,82.4996,325.6557,335.5517,24.4955,0,U,46488,999,26352,-.16906234E-3,-.14E-6,0
DEKART,2020-068H,2026-07-21T15:07:46.985088,15.38046927,.00099137,97.8750,214.3863,151.8829,208.2952,0,U,46493,999,32106,.29878014E-3,.11115E-3,0
